[{"OBJECT_NAME":"CUBESX-HSE 3 (RS42S)","OBJECT_ID":"2023-091N","EPOCH":"2026-03-09T22:57:25.321248","MEAN_MOTION":15.286147,"ECCENTRICITY":0.00127191,"INCLINATION":97.5203,"RA_OF_ASC_NODE":133.4295,"ARG_OF_PERICENTER":86.5376,"MEAN_ANOMALY":273.7318,"EPHEMERIS_TYPE":0,"CLASSIFICATION_TYPE":"U","NORAD_CAT_ID":57178,"ELEMENT_SET_NO":999,"REV_AT_EPOCH":14925,"BSTAR":0.00059055694,"MEAN_MOTION_DOT":0.00016417,"MEAN_MOTION_DDOT":0},{"OBJECT_NAME":"STARLINK-30477","OBJECT_ID":"2023-146X","EPOCH":"2026-03-09T01:38:18.250656","MEAN_MOTION":15.27558432,"ECCENTRICITY":0.0001519,"INCLINATION":42.9994,"RA_OF_ASC_NODE":314.0913,"ARG_OF_PERICENTER":268.5622,"MEAN_ANOMALY":91.5056,"EPHEMERIS_TYPE":0,"CLASSIFICATION_TYPE":"U","NORAD_CAT_ID":57912,"ELEMENT_SET_NO":999,"REV_AT_EPOCH":13700,"BSTAR":-0.00024319354,"MEAN_MOTION_DOT":-6.944e-5,"MEAN_MOTION_DDOT":0}]
